STARLINK-35483          
1 66252U 25245U   25319.83335647 -.01937903  00000+0 -16947-1 0  9999
2 66252  53.1595  97.2604 0001018  68.9210 200.4071 15.71220040  3734
STARLINK-35486          
1 66253U 25245V   25319.83335647 -.01937533  00000+0 -16944-1 0  9996
2 66253  53.1594  97.2571 0000977  56.2435 214.9994 15.71220773  3578
STARLINK-35488          
1 66254U 25245W   25319.83335647 -.01938291  00000+0 -16951-1 0  9997
2 66254  53.1592  97.2528 0000948  54.3274 218.8306 15.71221776  3784
STARLINK-35616          
1 66255U 25245X   25319.83335647 -.01937410  00000+0 -16942-1 0  9990
2 66255  53.1592  97.2488 0000980  55.0011 220.0743 15.71221054  3782
STARLINK-35619          
1 66256U 25245Y   25319.83335647 -.01941220  00000+0 -16979-1 0  9995
2 66256  53.1592  97.2367 0000915  63.6661 217.1619 15.71223253  3785
STARLINK-35615          
1 66257U 25245Z   25319.83335647 -.01940915  00000+0 -16976-1 0  9993
2 66257  53.1595  97.2409 0000896  59.3891 219.5207 15.71223452  3781
STARLINK-34650          
1 66258U 25245AA  25319.83335647 -.01941893  00000+0 -16985-1 0  9990
2 66258  53.1594  97.2445 0000842  62.9492 214.0431 15.71224643  3781
STARLINK-35529          
1 66259U 25245AB  25319.83335647 -.01941799  00000+0 -16984-1 0  9995
2 66259  53.1593  97.2287 0000855  64.4097 220.2509 15.71224140  3784
STARLINK-35420          
1 66260U 25245AC  25319.83335647 -.01938583  00000+0 -16953-1 0  9990
2 66260  53.1592  97.2330 0000971  56.7605 225.9817 15.71222281  3780
STARLINK-35536          
1 66261U 25245AD  25319.83335647 -.01940912  00000+0 -16976-1 0  9995
2 66261  53.1593  97.2247 0000895  62.0474 224.5312 15.71222972  3780
STARLINK-35487          
1 66262U 25245AE  25319.83335647 -.01944007  00000+0 -17004-1 0  9998
2 66262  53.1591  97.2206 0000931  59.9558 228.5370 15.71225962  3738
STARLINK-35801          
1 66265U 25247A   25319.62856132 -.01149501  00000+0 -12354-1 0  9996
2 66265  53.1590   5.9920 0000235  20.4123 339.6903 15.65698849  3509
