CCSDS_OMM_VERS = 2.0
CREATION_DATE  = 
ORIGINATOR     = 

OBJECT_NAME    = STARLINK-35483
OBJECT_ID      = 2025-245U
CENTER_NAME    = EARTH
REF_FRAME      = TEME
TIME_SYSTEM    = UTC
MEAN_ELEMENT_THEORY = SGP/SGP4

EPOCH          = 2025-11-15T20:00:01.999008
MEAN_MOTION    = 15.71220040
ECCENTRICITY   = .0001018
INCLINATION    = 53.1595
RA_OF_ASC_NODE = 97.2604
ARG_OF_PERICENTER = 68.9210
MEAN_ANOMALY   = 200.4071

EPHEMERIS_TYPE = 0
CLASSIFICATION_TYPE = U
NORAD_CAT_ID   = 66252
ELEMENT_SET_NO = 999
REV_AT_EPOCH   = 373
BSTAR          = -.16947E-1
MEAN_MOTION_DOT = -.1937903E-1
MEAN_MOTION_DDOT = 0

CCSDS_OMM_VERS = 2.0
CREATION_DATE  = 
ORIGINATOR     = 

OBJECT_NAME    = STARLINK-35486
OBJECT_ID      = 2025-245V
CENTER_NAME    = EARTH
REF_FRAME      = TEME
TIME_SYSTEM    = UTC
MEAN_ELEMENT_THEORY = SGP/SGP4

EPOCH          = 2025-11-15T20:00:01.999008
MEAN_MOTION    = 15.71220773
ECCENTRICITY   = .0000977
INCLINATION    = 53.1594
RA_OF_ASC_NODE = 97.2571
ARG_OF_PERICENTER = 56.2435
MEAN_ANOMALY   = 214.9994

EPHEMERIS_TYPE = 0
CLASSIFICATION_TYPE = U
NORAD_CAT_ID   = 66253
ELEMENT_SET_NO = 999
REV_AT_EPOCH   = 357
BSTAR          = -.16944E-1
MEAN_MOTION_DOT = -.1937533E-1
MEAN_MOTION_DDOT = 0

CCSDS_OMM_VERS = 2.0
CREATION_DATE  = 
ORIGINATOR     = 

OBJECT_NAME    = STARLINK-35488
OBJECT_ID      = 2025-245W
CENTER_NAME    = EARTH
REF_FRAME      = TEME
TIME_SYSTEM    = UTC
MEAN_ELEMENT_THEORY = SGP/SGP4

EPOCH          = 2025-11-15T20:00:01.999008
MEAN_MOTION    = 15.71221776
ECCENTRICITY   = .0000948
INCLINATION    = 53.1592
RA_OF_ASC_NODE = 97.2528
ARG_OF_PERICENTER = 54.3274
MEAN_ANOMALY   = 218.8306

EPHEMERIS_TYPE = 0
CLASSIFICATION_TYPE = U
NORAD_CAT_ID   = 66254
ELEMENT_SET_NO = 999
REV_AT_EPOCH   = 378
BSTAR          = -.16951E-1
MEAN_MOTION_DOT = -.1938291E-1
MEAN_MOTION_DDOT = 0

CCSDS_OMM_VERS = 2.0
CREATION_DATE  = 
ORIGINATOR     = 

OBJECT_NAME    = STARLINK-35616
OBJECT_ID      = 2025-245X
CENTER_NAME    = EARTH
REF_FRAME      = TEME
TIME_SYSTEM    = UTC
MEAN_ELEMENT_THEORY = SGP/SGP4

EPOCH          = 2025-11-15T20:00:01.999008
MEAN_MOTION    = 15.71221054
ECCENTRICITY   = .000098
INCLINATION    = 53.1592
RA_OF_ASC_NODE = 97.2488
ARG_OF_PERICENTER = 55.0011
MEAN_ANOMALY   = 220.0743

EPHEMERIS_TYPE = 0
CLASSIFICATION_TYPE = U
NORAD_CAT_ID   = 66255
ELEMENT_SET_NO = 999
REV_AT_EPOCH   = 378
BSTAR          = -.16942E-1
MEAN_MOTION_DOT = -.193741E-1
MEAN_MOTION_DDOT = 0

CCSDS_OMM_VERS = 2.0
CREATION_DATE  = 
ORIGINATOR     = 

OBJECT_NAME    = STARLINK-35619
OBJECT_ID      = 2025-245Y
CENTER_NAME    = EARTH
REF_FRAME      = TEME
TIME_SYSTEM    = UTC
MEAN_ELEMENT_THEORY = SGP/SGP4

EPOCH          = 2025-11-15T20:00:01.999008
MEAN_MOTION    = 15.71223253
ECCENTRICITY   = .0000915
INCLINATION    = 53.1592
RA_OF_ASC_NODE = 97.2367
ARG_OF_PERICENTER = 63.6661
MEAN_ANOMALY   = 217.1619

EPHEMERIS_TYPE = 0
CLASSIFICATION_TYPE = U
NORAD_CAT_ID   = 66256
ELEMENT_SET_NO = 999
REV_AT_EPOCH   = 378
BSTAR          = -.16979E-1
MEAN_MOTION_DOT = -.194122E-1
MEAN_MOTION_DDOT = 0

CCSDS_OMM_VERS = 2.0
CREATION_DATE  = 
ORIGINATOR     = 

OBJECT_NAME    = STARLINK-35615
OBJECT_ID      = 2025-245Z
CENTER_NAME    = EARTH
REF_FRAME      = TEME
TIME_SYSTEM    = UTC
MEAN_ELEMENT_THEORY = SGP/SGP4

EPOCH          = 2025-11-15T20:00:01.999008
MEAN_MOTION    = 15.71223452
ECCENTRICITY   = .0000896
INCLINATION    = 53.1595
RA_OF_ASC_NODE = 97.2409
ARG_OF_PERICENTER = 59.3891
MEAN_ANOMALY   = 219.5207

EPHEMERIS_TYPE = 0
CLASSIFICATION_TYPE = U
NORAD_CAT_ID   = 66257
ELEMENT_SET_NO = 999
REV_AT_EPOCH   = 378
BSTAR          = -.16976E-1
MEAN_MOTION_DOT = -.1940915E-1
MEAN_MOTION_DDOT = 0

CCSDS_OMM_VERS = 2.0
CREATION_DATE  = 
ORIGINATOR     = 

OBJECT_NAME    = STARLINK-34650
OBJECT_ID      = 2025-245AA
CENTER_NAME    = EARTH
REF_FRAME      = TEME
TIME_SYSTEM    = UTC
MEAN_ELEMENT_THEORY = SGP/SGP4

EPOCH          = 2025-11-15T20:00:01.999008
MEAN_MOTION    = 15.71224643
ECCENTRICITY   = .0000842
INCLINATION    = 53.1594
RA_OF_ASC_NODE = 97.2445
ARG_OF_PERICENTER = 62.9492
MEAN_ANOMALY   = 214.0431

EPHEMERIS_TYPE = 0
CLASSIFICATION_TYPE = U
NORAD_CAT_ID   = 66258
ELEMENT_SET_NO = 999
REV_AT_EPOCH   = 378
BSTAR          = -.16985E-1
MEAN_MOTION_DOT = -.1941893E-1
MEAN_MOTION_DDOT = 0

CCSDS_OMM_VERS = 2.0
CREATION_DATE  = 
ORIGINATOR     = 

OBJECT_NAME    = STARLINK-35529
OBJECT_ID      = 2025-245AB
CENTER_NAME    = EARTH
REF_FRAME      = TEME
TIME_SYSTEM    = UTC
MEAN_ELEMENT_THEORY = SGP/SGP4

EPOCH          = 2025-11-15T20:00:01.999008
MEAN_MOTION    = 15.71224140
ECCENTRICITY   = .0000855
INCLINATION    = 53.1593
RA_OF_ASC_NODE = 97.2287
ARG_OF_PERICENTER = 64.4097
MEAN_ANOMALY   = 220.2509

EPHEMERIS_TYPE = 0
CLASSIFICATION_TYPE = U
NORAD_CAT_ID   = 66259
ELEMENT_SET_NO = 999
REV_AT_EPOCH   = 378
BSTAR          = -.16984E-1
MEAN_MOTION_DOT = -.1941799E-1
MEAN_MOTION_DDOT = 0

CCSDS_OMM_VERS = 2.0
CREATION_DATE  = 
ORIGINATOR     = 

OBJECT_NAME    = STARLINK-35420
OBJECT_ID      = 2025-245AC
CENTER_NAME    = EARTH
REF_FRAME      = TEME
TIME_SYSTEM    = UTC
MEAN_ELEMENT_THEORY = SGP/SGP4

EPOCH          = 2025-11-15T20:00:01.999008
MEAN_MOTION    = 15.71222281
ECCENTRICITY   = .0000971
INCLINATION    = 53.1592
RA_OF_ASC_NODE = 97.2330
ARG_OF_PERICENTER = 56.7605
MEAN_ANOMALY   = 225.9817

EPHEMERIS_TYPE = 0
CLASSIFICATION_TYPE = U
NORAD_CAT_ID   = 66260
ELEMENT_SET_NO = 999
REV_AT_EPOCH   = 378
BSTAR          = -.16953E-1
MEAN_MOTION_DOT = -.1938583E-1
MEAN_MOTION_DDOT = 0

CCSDS_OMM_VERS = 2.0
CREATION_DATE  = 
ORIGINATOR     = 

OBJECT_NAME    = STARLINK-35536
OBJECT_ID      = 2025-245AD
CENTER_NAME    = EARTH
REF_FRAME      = TEME
TIME_SYSTEM    = UTC
MEAN_ELEMENT_THEORY = SGP/SGP4

EPOCH          = 2025-11-15T20:00:01.999008
MEAN_MOTION    = 15.71222972
ECCENTRICITY   = .0000895
INCLINATION    = 53.1593
RA_OF_ASC_NODE = 97.2247
ARG_OF_PERICENTER = 62.0474
MEAN_ANOMALY   = 224.5312

EPHEMERIS_TYPE = 0
CLASSIFICATION_TYPE = U
NORAD_CAT_ID   = 66261
ELEMENT_SET_NO = 999
REV_AT_EPOCH   = 378
BSTAR          = -.16976E-1
MEAN_MOTION_DOT = -.1940912E-1
MEAN_MOTION_DDOT = 0

CCSDS_OMM_VERS = 2.0
CREATION_DATE  = 
ORIGINATOR     = 

OBJECT_NAME    = STARLINK-35487
OBJECT_ID      = 2025-245AE
CENTER_NAME    = EARTH
REF_FRAME      = TEME
TIME_SYSTEM    = UTC
MEAN_ELEMENT_THEORY = SGP/SGP4

EPOCH          = 2025-11-15T20:00:01.999008
MEAN_MOTION    = 15.71225962
ECCENTRICITY   = .0000931
INCLINATION    = 53.1591
RA_OF_ASC_NODE = 97.2206
ARG_OF_PERICENTER = 59.9558
MEAN_ANOMALY   = 228.5370

EPHEMERIS_TYPE = 0
CLASSIFICATION_TYPE = U
NORAD_CAT_ID   = 66262
ELEMENT_SET_NO = 999
REV_AT_EPOCH   = 373
BSTAR          = -.17004E-1
MEAN_MOTION_DOT = -.1944007E-1
MEAN_MOTION_DDOT = 0

CCSDS_OMM_VERS = 2.0
CREATION_DATE  = 
ORIGINATOR     = 

OBJECT_NAME    = STARLINK-35801
OBJECT_ID      = 2025-247A
CENTER_NAME    = EARTH
REF_FRAME      = TEME
TIME_SYSTEM    = UTC
MEAN_ELEMENT_THEORY = SGP/SGP4

EPOCH          = 2025-11-15T15:05:07.698048
MEAN_MOTION    = 15.65698849
ECCENTRICITY   = .0000235
INCLINATION    = 53.1590
RA_OF_ASC_NODE = 5.9920
ARG_OF_PERICENTER = 20.4123
MEAN_ANOMALY   = 339.6903

EPHEMERIS_TYPE = 0
CLASSIFICATION_TYPE = U
NORAD_CAT_ID   = 66265
ELEMENT_SET_NO = 999
REV_AT_EPOCH   = 350
BSTAR          = -.12354E-1
MEAN_MOTION_DOT = -.1149501E-1
MEAN_MOTION_DDOT = 0

